{
    "links": {
        "self": "http://www.neowsapp.com/rest/v1/neo/3750662?api_key=iIulBulltgU6a56xZRHN4H3l9WmuAYTsLGpBGhQ2"
    },
    "id": "3750662",
    "neo_reference_id": "3750662",
    "name": "(2016 GO134)",
    "designation": "2016 GO134",
    "nasa_jpl_url": "http://ssd.jpl.nasa.gov/sbdb.cgi?sstr=3750662",
    "absolute_magnitude_h": 27.6,
    "estimated_diameter": {
        "kilometers": {
            "estimated_diameter_min": 0.0080270317,
            "estimated_diameter_max": 0.0179489885
        },
        "meters": {
            "estimated_diameter_min": 8.0270316728,
            "estimated_diameter_max": 17.948988478
        },
        "miles": {
            "estimated_diameter_min": 0.0049877647,
            "estimated_diameter_max": 0.0111529809
        },
        "feet": {
            "estimated_diameter_min": 26.3354065935,
            "estimated_diameter_max": 58.8877593581
        }
    },
    "is_potentially_hazardous_asteroid": false,
    "close_approach_data": [
        {
            "close_approach_date": "1977-02-08",
            "close_approach_date_full": "1977-Feb-08 20:01",
            "epoch_date_close_approach": 224280060000,
            "relative_velocity": {
                "kilometers_per_second": "6.0298222946",
                "kilometers_per_hour": "21707.3602606999",
                "miles_per_hour": "13488.1094908777"
            },
            "miss_distance": {
                "astronomical": "1.4958431056",
                "lunar": "581.8829680784",
                "kilometers": "223774942.451945072",
                "miles": "139047301.5305911136"
            },
            "orbiting_body": "Juptr"
        },
        {
            "close_approach_date": "2016-04-08",
            "close_approach_date_full": "2016-Apr-08 19:34",
            "epoch_date_close_approach": 1460144040000,
            "relative_velocity": {
                "kilometers_per_second": "15.2535508051",
                "kilometers_per_hour": "54912.7828985184",
                "miles_per_hour": "34120.6677960266"
            },
            "miss_distance": {
                "astronomical": "0.002219103",
                "lunar": "0.863231067",
                "kilometers": "331973.08211061",
                "miles": "206278.507962018"
            },
            "orbiting_body": "Earth"
        },
        {
            "close_approach_date": "2016-04-08",
            "close_approach_date_full": "2016-Apr-08 23:55",
            "epoch_date_close_approach": 1460159700000,
            "relative_velocity": {
                "kilometers_per_second": "15.9249144003",
                "kilometers_per_hour": "57329.6918412215",
                "miles_per_hour": "35622.441022119"
            },
            "miss_distance": {
                "astronomical": "0.0038376744",
                "lunar": "1.4928553416",
                "kilometers": "574107.915993528",
                "miles": "356734.1170175664"
            },
            "orbiting_body": "Moon"
        },
        {
            "close_approach_date": "2072-06-29",
            "close_approach_date_full": "2072-Jun-29 03:48",
            "epoch_date_close_approach": 3234397680000,
            "relative_velocity": {
                "kilometers_per_second": "5.8363937044",
                "kilometers_per_hour": "21011.0173356919",
                "miles_per_hour": "13055.4290772804"
            },
            "miss_distance": {
                "astronomical": "1.6274762765",
                "lunar": "633.0882715585",
                "kilometers": "243466984.439931055",
                "miles": "151283369.027936359"
            },
            "orbiting_body": "Juptr"
        }
    ],
    "orbital_data": {
        "orbit_id": "3",
        "orbit_determination_date": "2017-04-06 08:26:42",
        "first_observation_date": "2016-04-06",
        "last_observation_date": "2016-04-07",
        "data_arc_in_days": 1,
        "observations_used": 22,
        "orbit_uncertainty": "8",
        "minimum_orbit_intersection": ".00105149",
        "jupiter_tisserand_invariant": "3.180",
        "epoch_osculation": "2457485.5",
        "eccentricity": ".6502982237993143",
        "semi_major_axis": "2.417638835825823",
        "inclination": "7.114705169510686",
        "ascending_node_longitude": "18.91283401579884",
        "orbital_period": "1373.047500543444",
        "perihelion_distance": ".8454525951000483",
        "perihelion_argument": "233.3238425014125",
        "aphelion_distance": "3.989825076551599",
        "perihelion_time": "2457523.913578766292",
        "mean_anomaly": "349.9283248755839",
        "mean_motion": ".2621904922134988",
        "equinox": "J2000",
        "orbit_class": {
            "orbit_class_type": "APO",
            "orbit_class_description": "Near-Earth asteroid orbits which cross the Earth’s orbit similar to that of 1862 Apollo",
            "orbit_class_range": "a (semi-major axis) > 1.0 AU; q (perihelion) < 1.017 AU"
        }
    },
    "is_sentry_object": false
}